TIANMU-1 10             
1 57402U 23101D   26117.18541745  .00007559  00000+0  26818-3 0  9990
2 57402  97.2666 169.2524 0002793 335.7523  24.3585 15.29337532153842
FENGYUN 3F              
1 57490U 23111A   26117.16857690  .00000063  00000+0  50215-4 0  9997
2 57490  98.6860 188.1224 0000909 113.2417 246.8855 14.19929845141621
ARKTIKA-M 2             
1 58584U 23198A   26110.92958556  .00000217  00000+0  00000+0 0  9990
2 58584  63.2192 160.7194 6953303 267.0904  18.4710  2.00586979 17173
TIANMU-1 11             
1 58645U 23205A   26117.19276713  .00006273  00000+0  24312-3 0  9995
2 58645  97.3487 139.5629 0009213 172.7068 187.4306 15.26457195129746
TIANMU-1 12             
1 58646U 23205B   26117.22720955  .00006562  00000+0  25469-3 0  9997
2 58646  97.3476 139.3636 0008076 154.6178 205.5459 15.26403774129732
TIANMU-1 13             
1 58647U 23205C   26117.19091595  .00006917  00000+0  26781-3 0  9997
2 58647  97.3504 139.5882 0008838 139.1663 221.0239 15.26457365129726
TIANMU-1 14             
1 58648U 23205D   26117.17632289  .00006142  00000+0  23830-3 0  9999
2 58648  97.3438 138.7989 0009438 143.6411 216.5471 15.26427588129721
TIANMU-1 19             
1 58660U 23208A   26117.11650457  .00010023  00000+0  33945-3 0  9998
2 58660  97.4438 233.2055 0006319 130.1492 230.0303 15.30763451129515
TIANMU-1 20             
1 58661U 23208B   26117.19398743  .00010536  00000+0  34360-3 0  9995
2 58661  97.4379 233.8659 0008353 138.8689 221.3183 15.31954007129619
TIANMU-1 21             
1 58662U 23208C   26117.19151939  .00012119  00000+0  36884-3 0  9992
2 58662  97.4437 236.3299 0008335 133.6861 226.5074 15.34124938129743
TIANMU-1 22             
1 58663U 23208D   26117.21284416  .00009916  00000+0  34066-3 0  9994
2 58663  97.4434 233.2789 0004711 145.6658 214.4888 15.30309793129538
TIANMU-1 15             
1 58700U 24004A   26117.17330953  .00006444  00000+0  24977-3 0  9997
2 58700  97.4678 303.3724 0007625 157.6220 202.5352 15.26467919127995
TIANMU-1 16             
1 58701U 24004B   26117.15562933  .00006481  00000+0  25096-3 0  9995
2 58701  97.4624 302.6443 0006023 157.4936 202.6568 15.26505722127995
TIANMU-1 17             
1 58702U 24004C   26117.20530399  .00006630  00000+0  25784-3 0  9993
2 58702  97.4653 303.1626 0005817 161.9427 198.2019 15.26354101127996
TIANMU-1 18             
1 58703U 24004D   26117.18958332  .00006721  00000+0  26049-3 0  9998
2 58703  97.4670 303.3720 0004709 153.3373 206.8109 15.26467482127990
INSAT-3DS               
1 58990U 24033A   26116.76572571 -.00000167  00000+0  00000+0 0  9992
2 58990   0.0919  86.7261 0001934 299.8544 185.9109  1.00270692 46550
METEOR-M2 4             
1 59051U 24039A   26117.18537954  .00000032  00000+0  34029-4 0  9993
2 59051  98.6976  77.1356 0006408 325.8878  34.1888 14.22424064112011
