[{"OBJECT_NAME":"TIANMU-1 10","OBJECT_ID":"2023-101D","EPOCH":"2026-04-27T04:27:00.067680","MEAN_MOTION":15.29337532,"ECCENTRICITY":0.0002793,"INCLINATION":97.2666,"RA_OF_ASC_NODE":169.2524,"ARG_OF_PERICENTER":335.7523,"MEAN_ANOMALY":24.3585,"EPHEMERIS_TYPE":0,"CLASSIFICATION_TYPE":"U","NORAD_CAT_ID":57402,"ELEMENT_SET_NO":999,"REV_AT_EPOCH":15384,"BSTAR":0.00026818,"MEAN_MOTION_DOT":7.559e-5,"MEAN_MOTION_DDOT":0},{"OBJECT_NAME":"FENGYUN 3F","OBJECT_ID":"2023-111A","EPOCH":"2026-04-27T04:02:45.044160","MEAN_MOTION":14.19929845,"ECCENTRICITY":9.09e-5,"INCLINATION":98.686,"RA_OF_ASC_NODE":188.1224,"ARG_OF_PERICENTER":113.2417,"MEAN_ANOMALY":246.8855,"EPHEMERIS_TYPE":0,"CLASSIFICATION_TYPE":"U","NORAD_CAT_ID":57490,"ELEMENT_SET_NO":999,"REV_AT_EPOCH":14162,"BSTAR":5.0215e-5,"MEAN_MOTION_DOT":6.3e-7,"MEAN_MOTION_DDOT":0},{"OBJECT_NAME":"ARKTIKA-M 2","OBJECT_ID":"2023-198A","EPOCH":"2026-04-20T22:18:36.192384","MEAN_MOTION":2.00586979,"ECCENTRICITY":0.69533035,"INCLINATION":63.2192,"RA_OF_ASC_NODE":160.7194,"ARG_OF_PERICENTER":267.0904,"MEAN_ANOMALY":18.471,"EPHEMERIS_TYPE":0,"CLASSIFICATION_TYPE":"U","NORAD_CAT_ID":58584,"ELEMENT_SET_NO":999,"REV_AT_EPOCH":1717,"BSTAR":0,"MEAN_MOTION_DOT":2.17e-6,"MEAN_MOTION_DDOT":0},{"OBJECT_NAME":"TIANMU-1 11","OBJECT_ID":"2023-205A","EPOCH":"2026-04-27T04:37:35.080032","MEAN_MOTION":15.26457195,"ECCENTRICITY":0.0009213,"INCLINATION":97.3487,"RA_OF_ASC_NODE":139.5629,"ARG_OF_PERICENTER":172.7068,"MEAN_ANOMALY":187.4306,"EPHEMERIS_TYPE":0,"CLASSIFICATION_TYPE":"U","NORAD_CAT_ID":58645,"ELEMENT_SET_NO":999,"REV_AT_EPOCH":12974,"BSTAR":0.00024312,"MEAN_MOTION_DOT":6.273e-5,"MEAN_MOTION_DDOT":0},{"OBJECT_NAME":"TIANMU-1 12","OBJECT_ID":"2023-205B","EPOCH":"2026-04-27T05:27:10.905120","MEAN_MOTION":15.26403774,"ECCENTRICITY":0.0008076,"INCLINATION":97.3476,"RA_OF_ASC_NODE":139.3636,"ARG_OF_PERICENTER":154.6178,"MEAN_ANOMALY":205.5459,"EPHEMERIS_TYPE":0,"CLASSIFICATION_TYPE":"U","NORAD_CAT_ID":58646,"ELEMENT_SET_NO":999,"REV_AT_EPOCH":12973,"BSTAR":0.00025469,"MEAN_MOTION_DOT":6.562e-5,"MEAN_MOTION_DDOT":0},{"OBJECT_NAME":"TIANMU-1 13","OBJECT_ID":"2023-205C","EPOCH":"2026-04-27T04:34:55.138080","MEAN_MOTION":15.26457365,"ECCENTRICITY":0.0008838,"INCLINATION":97.3504,"RA_OF_ASC_NODE":139.5882,"ARG_OF_PERICENTER":139.1663,"MEAN_ANOMALY":221.0239,"EPHEMERIS_TYPE":0,"CLASSIFICATION_TYPE":"U","NORAD_CAT_ID":58647,"ELEMENT_SET_NO":999,"REV_AT_EPOCH":12972,"BSTAR":0.00026781,"MEAN_MOTION_DOT":6.917e-5,"MEAN_MOTION_DDOT":0},{"OBJECT_NAME":"TIANMU-1 14","OBJECT_ID":"2023-205D","EPOCH":"2026-04-27T04:13:54.297696","MEAN_MOTION":15.26427588,"ECCENTRICITY":0.0009438,"INCLINATION":97.3438,"RA_OF_ASC_NODE":138.7989,"ARG_OF_PERICENTER":143.6411,"MEAN_ANOMALY":216.5471,"EPHEMERIS_TYPE":0,"CLASSIFICATION_TYPE":"U","NORAD_CAT_ID":58648,"ELEMENT_SET_NO":999,"REV_AT_EPOCH":12972,"BSTAR":0.0002383,"MEAN_MOTION_DOT":6.142e-5,"MEAN_MOTION_DDOT":0},{"OBJECT_NAME":"TIANMU-1 19","OBJECT_ID":"2023-208A","EPOCH":"2026-04-27T02:47:45.994848","MEAN_MOTION":15.30763451,"ECCENTRICITY":0.0006319,"INCLINATION":97.4438,"RA_OF_ASC_NODE":233.2055,"ARG_OF_PERICENTER":130.1492,"MEAN_ANOMALY":230.0303,"EPHEMERIS_TYPE":0,"CLASSIFICATION_TYPE":"U","NORAD_CAT_ID":58660,"ELEMENT_SET_NO":999,"REV_AT_EPOCH":12951,"BSTAR":0.00033945,"MEAN_MOTION_DOT":0.00010023,"MEAN_MOTION_DDOT":0},{"OBJECT_NAME":"TIANMU-1 20","OBJECT_ID":"2023-208B","EPOCH":"2026-04-27T04:39:20.513952","MEAN_MOTION":15.31954007,"ECCENTRICITY":0.0008353,"INCLINATION":97.4379,"RA_OF_ASC_NODE":233.8659,"ARG_OF_PERICENTER":138.8689,"MEAN_ANOMALY":221.3183,"EPHEMERIS_TYPE":0,"CLASSIFICATION_TYPE":"U","NORAD_CAT_ID":58661,"ELEMENT_SET_NO":999,"REV_AT_EPOCH":12961,"BSTAR":0.0003436,"MEAN_MOTION_DOT":0.00010536,"MEAN_MOTION_DDOT":0},{"OBJECT_NAME":"TIANMU-1 21","OBJECT_ID":"2023-208C","EPOCH":"2026-04-27T04:35:47.275296","MEAN_MOTION":15.34124938,"ECCENTRICITY":0.0008335,"INCLINATION":97.4437,"RA_OF_ASC_NODE":236.3299,"ARG_OF_PERICENTER":133.6861,"MEAN_ANOMALY":226.5074,"EPHEMERIS_TYPE":0,"CLASSIFICATION_TYPE":"U","NORAD_CAT_ID":58662,"ELEMENT_SET_NO":999,"REV_AT_EPOCH":12974,"BSTAR":0.00036884,"MEAN_MOTION_DOT":0.00012119,"MEAN_MOTION_DDOT":0},{"OBJECT_NAME":"TIANMU-1 22","OBJECT_ID":"2023-208D","EPOCH":"2026-04-27T05:06:29.735424","MEAN_MOTION":15.30309793,"ECCENTRICITY":0.0004711,"INCLINATION":97.4434,"RA_OF_ASC_NODE":233.2789,"ARG_OF_PERICENTER":145.6658,"MEAN_ANOMALY":214.4888,"EPHEMERIS_TYPE":0,"CLASSIFICATION_TYPE":"U","NORAD_CAT_ID":58663,"ELEMENT_SET_NO":999,"REV_AT_EPOCH":12953,"BSTAR":0.00034066,"MEAN_MOTION_DOT":9.916e-5,"MEAN_MOTION_DDOT":0},{"OBJECT_NAME":"TIANMU-1 15","OBJECT_ID":"2024-004A","EPOCH":"2026-04-27T04:09:33.943392","MEAN_MOTION":15.26467919,"ECCENTRICITY":0.0007625,"INCLINATION":97.4678,"RA_OF_ASC_NODE":303.3724,"ARG_OF_PERICENTER":157.622,"MEAN_ANOMALY":202.5352,"EPHEMERIS_TYPE":0,"CLASSIFICATION_TYPE":"U","NORAD_CAT_ID":58700,"ELEMENT_SET_NO":999,"REV_AT_EPOCH":12799,"BSTAR":0.00024977,"MEAN_MOTION_DOT":6.444e-5,"MEAN_MOTION_DDOT":0},{"OBJECT_NAME":"TIANMU-1 16","OBJECT_ID":"2024-004B","EPOCH":"2026-04-27T03:44:06.374112","MEAN_MOTION":15.26505722,"ECCENTRICITY":0.0006023,"INCLINATION":97.4624,"RA_OF_ASC_NODE":302.6443,"ARG_OF_PERICENTER":157.4936,"MEAN_ANOMALY":202.6568,"EPHEMERIS_TYPE":0,"CLASSIFICATION_TYPE":"U","NORAD_CAT_ID":58701,"ELEMENT_SET_NO":999,"REV_AT_EPOCH":12799,"BSTAR":0.00025096,"MEAN_MOTION_DOT":6.481e-5,"MEAN_MOTION_DDOT":0},{"OBJECT_NAME":"TIANMU-1 17","OBJECT_ID":"2024-004C","EPOCH":"2026-04-27T04:55:38.264736","MEAN_MOTION":15.26354101,"ECCENTRICITY":0.0005817,"INCLINATION":97.4653,"RA_OF_ASC_NODE":303.1626,"ARG_OF_PERICENTER":161.9427,"MEAN_ANOMALY":198.2019,"EPHEMERIS_TYPE":0,"CLASSIFICATION_TYPE":"U","NORAD_CAT_ID":58702,"ELEMENT_SET_NO":999,"REV_AT_EPOCH":12799,"BSTAR":0.00025784,"MEAN_MOTION_DOT":6.63e-5,"MEAN_MOTION_DDOT":0},{"OBJECT_NAME":"TIANMU-1 18","OBJECT_ID":"2024-004D","EPOCH":"2026-04-27T04:32:59.998848","MEAN_MOTION":15.26467482,"ECCENTRICITY":0.0004709,"INCLINATION":97.467,"RA_OF_ASC_NODE":303.372,"ARG_OF_PERICENTER":153.3373,"MEAN_ANOMALY":206.8109,"EPHEMERIS_TYPE":0,"CLASSIFICATION_TYPE":"U","NORAD_CAT_ID":58703,"ELEMENT_SET_NO":999,"REV_AT_EPOCH":12799,"BSTAR":0.00026049,"MEAN_MOTION_DOT":6.721e-5,"MEAN_MOTION_DDOT":0},{"OBJECT_NAME":"INSAT-3DS","OBJECT_ID":"2024-033A","EPOCH":"2026-04-26T18:22:38.701344","MEAN_MOTION":1.00270692,"ECCENTRICITY":0.00019347,"INCLINATION":0.0919,"RA_OF_ASC_NODE":86.7261,"ARG_OF_PERICENTER":299.8544,"MEAN_ANOMALY":185.9109,"EPHEMERIS_TYPE":0,"CLASSIFICATION_TYPE":"U","NORAD_CAT_ID":58990,"ELEMENT_SET_NO":999,"REV_AT_EPOCH":4655,"BSTAR":0,"MEAN_MOTION_DOT":-1.67e-6,"MEAN_MOTION_DDOT":0},{"OBJECT_NAME":"METEOR-M2 4","OBJECT_ID":"2024-039A","EPOCH":"2026-04-27T04:26:56.792256","MEAN_MOTION":14.22424064,"ECCENTRICITY":0.0006408,"INCLINATION":98.6976,"RA_OF_ASC_NODE":77.1356,"ARG_OF_PERICENTER":325.8878,"MEAN_ANOMALY":34.1888,"EPHEMERIS_TYPE":0,"CLASSIFICATION_TYPE":"U","NORAD_CAT_ID":59051,"ELEMENT_SET_NO":999,"REV_AT_EPOCH":11201,"BSTAR":3.4029e-5,"MEAN_MOTION_DOT":3.2e-7,"MEAN_MOTION_DDOT":0}]
